              M50 Cartesian                         J2K Cartesian  
    -----------------------------------       --------------------------------
     X    =       20784968.53                 X    =         6333361.56
     Y    =        3520110.79  feet           Y    =         1143764.13  meter
     Z    =       -7140205.80                 Z    =        -2145564.06
     XDOT =       3267.013067                 XDOT =         910.341313
     YDOT =      17203.781148  feet/sec       YDOT =        5254.370539  meter/sec
     ZDOT =      18056.054262                 ZDOT =        5508.114873
 
              TDR Cartesian                         TDR Cartesian  
    -----------------------------------       --------------------------------
     X    =       20759703.58                 X    =         6327557.65
     Y    =       -3915290.71  feet           Y    =        -1193380.61  meter
     Z    =       -7006699.76                 Z    =        -2135642.09
     XDOT =       8631.057131                 XDOT =        2630.746213
     YDOT =      13534.397119  feet/sec       YDOT =        4125.284242  meter/sec
     ZDOT =      18075.136167                 ZDOT =        5509.301504
  
  
    The mean element set is posted at the UTC for which position is
    just north of the next ascending node relative to the above
    vector time
 
 
    TWO LINE MEAN ELEMENT SET
  
    ISS
    1 25544U 98067A   16103.50423071  .00016717  00000-0  10270-3 0  9011
    2 25544  51.6429  25.6460 0002619  46.4303 313.7067 15.54458248 34763
  
  
    Satellite: ISS
    Catalog Number: 25544
    Epoch time:      16103.50423071   =   yrday.fracday
    Element set:     901
    Inclination:       51.6429  deg
    RA of node:        25.6460  deg
    Eccentricity:     .0002619     
    Arg of perigee:    46.4303  deg
    Mean anomaly:     313.7067  deg
    Mean motion:   15.54458248  rev/day
    Decay rate:    1.67170E-04  rev/day^2
    Epoch rev:            3476
    Checksum:              288
 
 
    Coasting Arc #3 (Orbit 3491)
    ---------------------------------------
 
    Vector Time (GMT): 2016/104/12:00:00.000
    Vector Time (MET): N/A
    Weight (LBS)     : 945238.6
 
              M50 Cartesian                         M50 Keplerian  
    -----------------------------------       --------------------------------
     X    =       -6455907.90                 A    =         6788292.57  meter
     Y    =       -2047379.99  meter          E    =           .0013427
     Z    =         375774.82                 I    =           51.79410
     XDOT =       1109.947495                 Wp   =          119.90744
     YDOT =      -4631.376789  meter/sec      RA   =           20.09844  deg
     ZDOT =      -6010.447300                 TA   =           56.04989
                                              MA   =           55.92233
                                              Ha   =            221.271  n.mi
                                              Hp   =            213.395
 
              M50 Cartesian                         J2K Cartesian  
    -----------------------------------       --------------------------------
     X    =      -21180800.21                 X    =        -6434359.13
     Y    =       -6717125.95  feet           Y    =        -2119453.74  meter
     Z    =        1232857.02                 Z    =          344465.94
     XDOT =       3641.560024                 XDOT =        1190.850503
     YDOT =     -15194.805737  feet/sec       YDOT =       -4618.512566  meter/sec
     ZDOT =     -19719.315290                 ZDOT =       -6004.858692
 
              TDR Cartesian                         TDR Cartesian  
    -----------------------------------       --------------------------------
     X    =      -22182006.99                 X    =        -6761075.73
     Y    =        1421517.41  feet           Y    =          433278.51  meter
     Z    =        1097209.67                 Z    =          334429.51
     XDOT =      -1893.741677                 XDOT =        -577.212463
     YDOT =     -13911.366470  feet/sec       YDOT =       -4240.184500  meter/sec
     ZDOT =     -19694.111045                 ZDOT =       -6002.765046
  
  
    The mean element set is posted at the UTC for which position is
    just north of the next ascending node relative to the above
    vector time
 
 
    TWO LINE MEAN ELEMENT SET
  
    ISS
    1 25544U 98067A   16104.53283450  .00016717  00000-0  10270-3 0  9021
    2 25544  51.6436  20.5151 0002591  52.0358 308.1023 15.54468853 34925
  
  
    Satellite: ISS
    Catalog Number: 25544
    Epoch time:      16104.53283450   =   yrday.fracday
    Element set:     902
    Inclination:       51.6436  deg
    RA of node:        20.5151  deg
    Eccentricity:     .0002591     
    Arg of perigee:    52.0358  deg
    Mean anomaly:     308.1023  deg
    Mean motion:   15.54468853  rev/day
    Decay rate:    1.67170E-04  rev/day^2
    Epoch rev:            3492
    Checksum:              280
 
 
    Coasting Arc #4 (Orbit 3491)
    ---------------------------------------
 
    Vector Time (GMT): 2016/104/12:24:13.979
    Vector Time (MET): N/A
    Weight (LBS)     : 945061.1
 
              M50 Cartesian                         M50 Keplerian  
    -----------------------------------       --------------------------------
     X    =        1443920.16                 A    =         6777124.53  meter
     Y    =       -3946013.71  meter          E    =           .0015777
     Z    =       -5330838.29                 I    =           51.75399
     XDOT =       7192.845588                 Wp   =           84.45376
     YDOT =       2625.665388  meter/sec      RA   =           20.01752  deg
     ZDOT =          6.189006                 TA   =          185.59638
                                              MA   =          185.61403
                                              Ha   =            221.246  n.mi
                                              Hp   =            214.258
 
              M50 Cartesian                         J2K Cartesian  
    -----------------------------------       --------------------------------
     X    =        4737270.87                 X    =         1513833.18
     Y    =      -12946239.20  feet           Y    =        -3929476.20  meter
     Z    =      -17489626.95                 Z    =        -5323654.05
     XDOT =      23598.574765                 XDOT =        7162.920092
     YDOT =       8614.387755  feet/sec       YDOT =        2705.933247  meter/sec
     ZDOT =         20.305138                 ZDOT =          41.057380
 
              TDR Cartesian                         TDR Cartesian  
    -----------------------------------       --------------------------------
     X    =       -1636451.81                 X    =         -498790.51
     Y    =      -13729066.02  feet           Y    =        -4184619.32  meter
     Z    =      -17457624.91                 Z    =        -5321084.07
     XDOT =      23917.684266                 XDOT =        7290.110164
     YDOT =      -3062.445230  feet/sec       YDOT =        -933.433306  meter/sec
     ZDOT =        171.305554                 ZDOT =          52.213933
  
  
    The mean element set is posted at the UTC for which position is
    just north of the next ascending node relative to the above
    vector time
 
 
    TWO LINE MEAN ELEMENT SET
  
    ISS
    1 25544U 98067A   16104.53283479  .00016717  00000-0  10270-3 0  9033
    2 25544  51.6438  20.5148 0001725  29.1025 331.0223 15.54208672 34925
  
  
    Satellite: ISS
    Catalog Number: 25544
    Epoch time:      16104.53283479   =   yrday.fracday
    Element set:     903
    Inclination:       51.6438  deg
    RA of node:        20.5148  deg
    Eccentricity:     .0001725     
    Arg of perigee:    29.1025  deg
    Mean anomaly:     331.0223  deg
    Mean motion:   15.54208672  rev/day
    Decay rate:    1.67170E-04  rev/day^2
    Epoch rev:            3492
    Checksum:              282
 
 
    Coasting Arc #5 (Orbit 3507)
    ---------------------------------------
 
    Vector Time (GMT): 2016/105/12:24:13.979
    Vector Time (MET): N/A
    Weight (LBS)     : 945061.1
 
              M50 Cartesian                         M50 Keplerian  
    -----------------------------------       --------------------------------
     X    =       -3157079.74                 A    =         6778321.11  meter
     Y    =        3261858.02  meter          E    =           .0007454
     Z    =        5030304.67                 I    =           51.72764
     XDOT =      -6608.063348                 Wp   =           49.48539
     YDOT =      -3370.646820  meter/sec      RA   =           15.02422  deg
     ZDOT =      -1954.999451                 TA   =           59.49339
                                              MA   =           59.41982
                                              Ha   =            221.273  n.mi
                                              Hp   =            214.175
 
              M50 Cartesian                         J2K Cartesian  
    -----------------------------------       --------------------------------
     X    =      -10357873.16                 X    =        -3217755.11
     Y    =       10701633.93  feet           Y    =         3226214.51  meter
     Z    =       16503624.26                 Z    =         5014820.77
     XDOT =     -21679.997860                 XDOT =       -6560.384243
     YDOT =     -11058.552559  feet/sec       YDOT =       -3444.276108  meter/sec
     ZDOT =      -6414.040193                 ZDOT =       -1986.983823
 
